0 TITAN 3C TRANSTAGE DEB
1 03373U 65082ML  13282.38371576  .00000357  00000-0  10419-3 0   223
2 03373 030.9969 291.4083 0220218 191.6697 311.1205 14.21520085406950
0 TITAN 3C TRANSTAGE DEB
1 03373U 65082ML  13283.44011412  .00000354  00000-0  10297-3 0   233
2 03373 030.9968 285.4819 0220232 200.9099 317.2066 14.21520895407104
0 TITAN 3C TRANSTAGE DEB
1 03373U 65082ML  13286.31697433  .00000585  00000-0  18405-3 0   252
2 03373 030.9967 269.3434 0220146 226.0634 279.4925 14.21523980407511
0 TITAN 3C TRANSTAGE DEB
1 03373U 65082ML  13288.13168466  .00001332  00000-0  44698-3 0   268
2 03373 030.9965 259.1633 0220125 241.9188 206.2847 14.21529017407770
0 TITAN 3C TRANSTAGE DEB
1 03373U 65082ML  13289.34093685  .00001238  00000-0  41411-3 0   278
2 03373 030.9965 252.3792 0220012 252.5061 274.6417 14.21534163407943
0 TITAN 3C TRANSTAGE DEB
1 03373U 65082ML  13291.15749132  .00001996  00000-0  68129-3 0   282
2 03373 030.9961 242.1881 0219931 268.3769 210.9657 14.21543054408201
0 TITAN 3C TRANSTAGE DEB
1 03373U 65082ML  13292.29115332  .00002856  00000-0  98390-3 0   297
2 03373 030.9968 235.8309 0220017 278.2854 252.5813 14.21548757408362
0 TITAN 3C TRANSTAGE DEB
1 03373U 65082ML  13294.18273376  .00004138  00000-0  14353-2 0   303
2 03373 030.9960 225.2192 0219871 294.8208 212.9616 14.21561457408633
0 TITAN 3C TRANSTAGE DEB
1 03373U 65082ML  13295.23881009  .00004868  00000-0  16921-2 0   312
2 03373 030.9957 219.2943 0219816 304.0514 217.5930 14.21569786408788
